SL-14 R/B               
1 20511U 90018B   26196.76968348  .00000216  00000+0  24021-4 0  9993
2 20511  82.5217 103.3934 0016990  35.0744 325.1585 14.82234340941551
HST                     
1 20580U 90037B   26196.50035387  .00003469  00000+0  10488-3 0  9994
2 20580  28.4723 247.0189 0002191 106.0764 254.0074 15.31063070792917
SL-16 R/B               
1 20625U 90046B   26196.79020301  .00000261  00000+0  15898-3 0  9992
2 20625  70.9987  28.8741 0012394 113.2986 246.9443 14.15025076866515
COSMOS 2084             
1 20663U 90055A   26196.54339088  .00000823  00000+0  69635-4 0  9995
2 20663  62.7883 259.2988 0008131 318.5258  41.5225 15.06224618955576
SL-6 R/B(2)             
1 20666U 90055D   26196.37207077  .00000971  00000+0  83116-4 0  9995
2 20666  62.7806 179.4588 0045188   9.0198 351.1703 15.04088201957398
SL-8 R/B                
1 20775U 90078B   26196.87885433  .00009806  00000+0  27805-3 0  9992
2 20775  82.9039 135.6922 0343338 301.2100  55.5888 14.93589087828408
SL-8 R/B                
1 21088U 91006B   26196.75558292  .00000093  00000+0  77479-4 0  9991
2 21088  82.9407  74.7791 0023405  39.0520  27.4621 13.77509335781707
OKEAN-3                 
1 21397U 91039A   26196.58778321  .00001826  00000+0  12513-3 0  9990
2 21397  82.5143 212.8374 0012429 253.2175 106.7688 15.05436046884276
COSMOS 2151             
1 21422U 91042A   26196.73518928  .00000761  00000+0  58184-4 0  9997
2 21422  82.4982 320.1298 0011908 353.6763   6.4309 15.00513993882391
SL-14 R/B               
1 21423U 91042B   26196.78231084  .00000182  00000+0  19944-4 0  9996
2 21423  82.4932 100.0810 0017025 174.9905 185.1483 14.81918277872041
ERS-1                   
1 21574U 91050A   26196.66280337  .00000168  00000+0  68459-4 0  9993
2 21574  98.7796 218.0561 0031880 180.3761 179.7407 14.39533384834144
ARIANE 40 R/B           
1 21610U 91050F   26196.13264318  .00000122  00000+0  48798-4 0  9991
2 21610  98.1863 243.4589 0004160  61.5815 298.5795 14.42971868837372
INTERCOSMOS 25          
1 21819U 91086A   26196.50587507  .00000105  00000+0  17864-4 0  9991
2 21819  82.6007 232.6730 1484597 201.2546 152.0077 12.12240510512173
SL-8 R/B                
1 21876U 92008B   26196.49746419  .00000096  00000+0  82494-4 0  9996
2 21876  82.9272 172.7386 0035673 135.7913 345.7543 13.75983854726990
SL-8 R/B                
1 21938U 92020B   26196.56848810  .00000013  00000+0 -15449-5 0  9992
2 21938  82.9280  58.7729 0027943 302.4251 121.9465 13.75550220718716
USA 81                  
1 21949U 92023A   26196.14742304  .00000106  00000+0  31871-4 0  9990
2 21949  85.0051  57.8662 0001978  64.8606 295.2791 14.32404929113036
COSMOS 2219             
1 22219U 92076A   26196.20254150 -.00000213  00000+0 -87093-4 0  9991
2 22219  71.0612 111.5082 0018271 357.4433   2.6593 14.14108726736400
SL-16 R/B               
1 22220U 92076B   26196.55889840  .00000129  00000+0  88047-4 0  9995
2 22220  71.0005 279.0154 0015032 261.7211 195.1909 14.16877561739944
COSMOS 2221             
1 22236U 92080A   26196.88937126  .00000835  00000+0  70810-4 0  9997
2 22236  82.5046 156.2653 0015762 118.1378 242.1439 14.96605111799969
SL-16 R/B               
1 22285U 92093B   26196.86354330 -.00000248  00000+0 -10261-3 0  9996
2 22285  71.0217  95.1923 0002251 133.1013 227.0298 14.15465561731290
COSMOS 2228             
1 22286U 92094A   26196.81756852  .00000807  00000+0  66548-4 0  9997
2 22286  82.5188 114.6194 0016352 226.8923 133.0932 14.97676591795231
SL-16 R/B               
1 22566U 93016B   26196.70530397  .00000225  00000+0  14002-3 0  9996
2 22566  71.0085 306.3093 0008823 137.0399 223.1414 14.15312880720280
COSMOS 2242             
1 22626U 93024A   26196.85701354  .00000880  00000+0  74075-4 0  9995
2 22626  82.5198 144.1136 0014703 230.1692 129.8237 14.96985978799565
SL-16 R/B               
1 22803U 93059B   26196.86317294 -.00000098  00000+0 -24505-4 0  9993
2 22803  70.9901 100.8322 0016680   7.5344 352.6027 14.17249400697697
ARIANE 40 R/B           
1 22830U 93061H   26196.76501541  .00000072  00000+0  42214-4 0  9992
2 22830  98.4806 263.0265 0009498 263.8588  96.1514 14.32918680712442
COSMOS 2278             
1 23087U 94023A   26196.53602734  .00000017  00000+0  33659-4 0  9999
2 23087  71.0523 267.6132 0009615 205.0482 155.0175 14.14393277662884
SL-16 R/B               
1 23088U 94023B   26196.31305392  .00000119  00000+0  85856-4 0  9995
2 23088  70.9984 162.8641 0001397 127.7315 232.3935 14.15024540664148
SL-16 R/B               
1 23343U 94074B   26196.56309669  .00000196  00000+0  32733-4 0  9994
2 23343  97.6986 222.1005 0007195 153.1639 324.9281 14.79524523706154
SL-16 R/B               
1 23405U 94077B   26196.81018024 -.00000046  00000+0  89671-6 0  9996
2 23405  70.9821  82.9457 0004083 302.8632  57.2098 14.15574238634360
ARIANE 40+ R/B          
1 23561U 95021B   26196.83447345  .00000115  00000+0  50441-4 0  9990
2 23561  98.4401 266.4939 0007917 114.7731 359.7657 14.39847770637684
