OBJECT_NAME,OBJECT_ID,EPOCH,MEAN_MOTION,ECCENTRICITY,INCLINATION,RA_OF_ASC_NODE,ARG_OF_PERICENTER,MEAN_ANOMALY,EPHEMERIS_TYPE,CLASSIFICATION_TYPE,NORAD_CAT_ID,ELEMENT_SET_NO,REV_AT_EPOCH,BSTAR,MEAN_MOTION_DOT,MEAN_MOTION_DDOT
SL-14 R/B,1990-018B,2026-07-15T18:28:20.652672,14.82234340,.001699,82.5217,103.3934,35.0744,325.1585,0,U,20511,999,94155,.24021E-4,.216E-5,0
HST,1990-037B,2026-07-15T12:00:30.574368,15.31063070,.00021916,28.4723,247.0189,106.0764,254.0074,0,U,20580,999,79291,.10487846E-3,.3469E-4,0
SL-16 R/B,1990-046B,2026-07-15T18:57:53.540064,14.15025076,.0012394,70.9987,28.8741,113.2986,246.9443,0,U,20625,999,86651,.15898E-3,.261E-5,0
COSMOS 2084,1990-055A,2026-07-15T13:02:28.972032,15.06224618,.00081316,62.7883,259.2988,318.5258,41.5225,0,U,20663,999,95557,.69635034E-4,.823E-5,0
SL-6 R/B(2),1990-055D,2026-07-15T08:55:46.914528,15.04088201,.00451889,62.7806,179.4588,9.0198,351.1703,0,U,20666,999,95739,.8311638E-4,.971E-5,0
SL-8 R/B,1990-078B,2026-07-15T21:05:33.014112,14.93589087,.0343338,82.9039,135.6922,301.2100,55.5888,0,U,20775,999,82840,.27805E-3,.9806E-4,0
SL-8 R/B,1991-006B,2026-07-15T18:08:02.364288,13.77509335,.0023405,82.9407,74.7791,39.0520,27.4621,0,U,21088,999,78170,.77479E-4,.93E-6,0
OKEAN-3,1991-039A,2026-07-15T14:06:24.469344,15.05436046,.0012429,82.5143,212.8374,253.2175,106.7688,0,U,21397,999,88427,.12513E-3,.1826E-4,0
COSMOS 2151,1991-042A,2026-07-15T17:38:40.353792,15.00513993,.0011908,82.4982,320.1298,353.6763,6.4309,0,U,21422,999,88239,.58184E-4,.761E-5,0
SL-14 R/B,1991-042B,2026-07-15T18:46:31.656576,14.81918277,.0017025,82.4932,100.0810,174.9905,185.1483,0,U,21423,999,87204,.19944E-4,.182E-5,0
ERS-1,1991-050A,2026-07-15T15:54:26.211168,14.39533384,.003188,98.7796,218.0561,180.3761,179.7407,0,U,21574,999,83414,.68459E-4,.168E-5,0
ARIANE 40 R/B,1991-050F,2026-07-15T03:11:00.370752,14.42971868,.00041607,98.1863,243.4589,61.5815,298.5795,0,U,21610,999,83737,.48798445E-4,.122E-5,0
INTERCOSMOS 25,1991-086A,2026-07-15T12:08:27.606048,12.12240510,.14845971,82.6007,232.6730,201.2546,152.0077,0,U,21819,999,51217,.17864439E-4,.105E-5,0
SL-8 R/B,1992-008B,2026-07-15T11:56:20.906016,13.75983854,.00356735,82.9272,172.7386,135.7913,345.7543,0,U,21876,999,72699,.82493734E-4,.96E-6,0
SL-8 R/B,1992-020B,2026-07-15T13:38:37.371840,13.75550220,.00279431,82.9280,58.7729,302.4251,121.9465,0,U,21938,999,71871,-.1544878E-5,.13E-6,0
USA 81,1992-023A,2026-07-15T03:32:17.350656,14.32404929,.00019781,85.0051,57.8662,64.8606,295.2791,0,U,21949,999,11303,.31870867E-4,.106E-5,0
COSMOS 2219,1992-076A,2026-07-15T04:51:39.585600,14.14108726,.0018271,71.0612,111.5082,357.4433,2.6593,0,U,22219,999,73640,-.870929E-4,-.213E-5,0
SL-16 R/B,1992-076B,2026-07-15T13:24:48.821760,14.16877561,.00150329,71.0005,279.0154,261.7211,195.1909,0,U,22220,999,73994,.88046647E-4,.129E-5,0
COSMOS 2221,1992-080A,2026-07-15T21:20:41.676864,14.96605111,.0015762,82.5046,156.2653,118.1378,242.1439,0,U,22236,999,79996,.7081E-4,.835E-5,0
SL-16 R/B,1992-093B,2026-07-15T20:43:30.141120,14.15465561,.0002251,71.0217,95.1923,133.1013,227.0298,0,U,22285,999,73129,-.10261E-3,-.248E-5,0
COSMOS 2228,1992-094A,2026-07-15T19:37:17.920128,14.97676591,.0016352,82.5188,114.6194,226.8923,133.0932,0,U,22286,999,79523,.66548E-4,.807E-5,0
SL-16 R/B,1993-016B,2026-07-15T16:55:38.263008,14.15312880,.0008823,71.0085,306.3093,137.0399,223.1414,0,U,22566,999,72028,.14002E-3,.225E-5,0
COSMOS 2242,1993-024A,2026-07-15T20:34:05.969856,14.96985978,.0014703,82.5198,144.1136,230.1692,129.8237,0,U,22626,999,79956,.74075E-4,.88E-5,0
SL-16 R/B,1993-059B,2026-07-15T20:42:58.142016,14.17249400,.001668,70.9901,100.8322,7.5344,352.6027,0,U,22803,999,69769,-.24505E-4,-.98E-6,0
ARIANE 40 R/B,1993-061H,2026-07-15T18:21:37.331424,14.32918680,.0009498,98.4806,263.0265,263.8588,96.1514,0,U,22830,999,71244,.42214E-4,.72E-6,0
COSMOS 2278,1994-023A,2026-07-15T12:51:52.762176,14.14393277,.00096155,71.0523,267.6132,205.0482,155.0175,0,U,23087,999,66288,.3365935E-4,.17E-6,0
SL-16 R/B,1994-023B,2026-07-15T07:30:47.858688,14.15024540,.00013972,70.9984,162.8641,127.7315,232.3935,0,U,23088,999,66414,.85856458E-4,.119E-5,0
SL-16 R/B,1994-074B,2026-07-15T13:30:51.554016,14.79524523,.00071956,97.6986,222.1005,153.1639,324.9281,0,U,23343,999,70615,.32732596E-4,.196E-5,0
SL-16 R/B,1994-077B,2026-07-15T19:26:39.572736,14.15574238,.0004083,70.9821,82.9457,302.8632,57.2098,0,U,23405,999,63436,.89671E-6,-.46E-6,0
ARIANE 40+ R/B,1995-021B,2026-07-15T20:01:38.506080,14.39847770,.0007917,98.4401,266.4939,114.7731,359.7657,0,U,23561,999,63768,.50441E-4,.115E-5,0
